BEIDOU-3S IGSO-1S       
1 40549U 15019A   26178.80438100 -.00000163  00000+0  00000+0 0  9995
2 40549  49.1741 295.3331 0039098 191.8080 168.8013  1.00249344 41180
NAVSTAR 74 (USA 262)    
1 40730U 15033A   26178.69157995 -.00000021  00000+0  00000+0 0  9993
2 40730  53.9742 266.6532 0115140  30.2326 330.4797  2.00555813 80206
BEIDOU-3S M2S           
1 40748U 15037A   26176.91454553 -.00000104  00000+0  00000+0 0  9991
2 40748  54.8627 301.7450 0008580 258.5842 101.3122  1.86232105 74281
BEIDOU-3S M1S           
1 40749U 15037B   26178.19464110 -.00000096  00000+0  00000+0 0  9994
2 40749  54.8580 301.6893 0003219  62.4123 297.6156  1.86255050 74312
GSAT0206 (GALILEO 10)   
1 40890U 15045B   26175.49628500  .00000051  00000+0  00000+0 0  9995
2 40890  54.9433 221.4024 0001685 336.0482  24.0274  1.70473861 67168
BEIDOU-3S IGSO-2S       
1 40938U 15053A   26178.68256312 -.00000108  00000+0  00000+0 0  9993
2 40938  49.2039 258.6560 0065523 192.9209 164.5083  1.00257701 39459
NAVSTAR 75 (USA 265)    
1 41019U 15062A   26177.75006963 -.00000080  00000+0  00000+0 0  9995
2 41019  56.9659  30.4428 0112188 230.9710 128.0791  2.00567519 78021
GSAT-15                 
1 41028U 15065A   26178.99128454 -.00000246  00000+0  00000+0 0  9999
2 41028   0.0475 263.1784 0004597 174.3590 288.9358  1.00270717 38906
GSAT0209 (GALILEO 12)   
1 41174U 15079A   26178.59733547 -.00000035  00000+0  00000+0 0  9993
2 41174  55.8332 100.9764 0005050 348.4689  11.4959  1.70473813 64951
GSAT0208 (GALILEO 11)   
1 41175U 15079B   26177.05790245 -.00000039  00000+0  00000+0 0  9996
2 41175  55.8311 101.0154 0004595 354.0123   5.9555  1.70473681 65340
IRNSS-1E                
1 41241U 16003A   26176.59836588 -.00000319  00000+0  00000+0 0  9998
2 41241  33.2517  59.6282 0019062 179.1130   2.2203  1.00274592 38164
NAVSTAR 76 (USA 266)    
1 41328U 16007A   26177.34308400 -.00000066  00000+0  00000+0 0  9998
2 41328  55.5293  89.0967 0095637 247.1706 111.8201  2.00551441 76026
COSMOS 2514 [GLONASS-M] 
1 41330U 16008A   26178.60888219 -.00000080  00000+0  00000+0 0  9999
2 41330  65.0149 312.6490 0011669 199.1006 160.8455  2.13102749 80840
BEIDOU-2 IGSO-6         
1 41434U 16021A   26177.11016981 -.00000145  00000+0  00000+0 0  9995
2 41434  60.2385  37.9495 0057558 231.0163 137.2672  1.00258926 37578
IRNSS-1G                
1 41469U 16027A   26178.99130941 -.00000327  00000+0  00000+0 0  9991
2 41469   5.2214  97.2249 0005812   4.3684 300.7506  1.00282186 37283
GSAT0211 (GALILEO 14)   
1 41549U 16030A   26178.94152421  .00000069  00000+0  00000+0 0  9998
2 41549  55.0927 221.3989 0003116 320.4926  39.5816  1.70474008 62858
GSAT0210 (GALILEO 13)   
1 41550U 16030B   26178.02561661  .00000065  00000+0  00000+0 0  9995
2 41550  55.0912 221.4221 0007792 256.4220 103.5859  1.70473957 62832
BEIDOU-2 G7             
1 41586U 16037A   26178.97621916 -.00000343  00000+0  00000+0 0  9995
2 41586   1.7467  69.4157 0006835   1.9382 306.7203  1.00271889  6999
EUTELSAT 117 WEST B     
1 41589U 16038B   26178.64050765  .00000003  00000+0  00000+0 0  9993
2 41589   0.0045 194.2086 0001078 160.1811  34.9585  1.00249555 36769
GSAT0207 (GALILEO 15)   
1 41859U 16069A   26177.71738502 -.00000038  00000+0  00000+0 0  9995
2 41859  55.5042 100.8225 0005006 333.0982  26.8500  1.70473700 59562
GSAT0212 (GALILEO 16)   
1 41860U 16069B   26178.15742113 -.00000037  00000+0  00000+0 0  9998
2 41860  55.5020 100.8054 0004388  12.7020 347.2841  1.70473636 59821
GSAT0213 (GALILEO 17)   
1 41861U 16069C   26178.52459935 -.00000036  00000+0  00000+0 0  9996
2 41861  55.5044 100.8032 0004580 315.6385  44.3011  1.70474304 59699
GSAT0214 (GALILEO 18)   
1 41862U 16069D   26172.80498560 -.00000023  00000+0  00000+0 0  9995
2 41862  55.5000 100.9540 0003849 321.2487  38.7039  1.70473560 59724
SES-15                  
1 42709U 17026A   26178.63816764  .00000071  00000+0  00000+0 0  9999
2 42709   0.0223 331.2484 0000731 121.5342 283.5476  1.00272066  7539
QZS-2 (MICHIBIKI-2)     
1 42738U 17028A   26178.49488950 -.00000130  00000+0  00000+0 0  9996
2 42738  39.4116 243.0027 0758985 269.3731  83.4413  1.00281278  7730
QZS-3 (MICHIBIKI-3)     
1 42917U 17048A   26178.98950953 -.00000336  00000+0  00000+0 0  9996
2 42917   0.0699 145.6040 0002296 308.0325 305.7264  1.00271487 32360
COSMOS 2522 [GLONASS-M] 
1 42939U 17055A   26175.16181676  .00000104  00000+0  00000+0 0  9995
2 42939  64.0776 191.6387 0008409 235.5259 124.4452  2.13101107 68121
QZS-4 (MICHIBIKI-4)     
1 42965U 17062A   26178.33281819 -.00000350  00000+0  00000+0 0  9998
2 42965  40.1035 343.3559 0746715 268.2655 281.5675  1.00296711 31901
BEIDOU-3 M1             
1 43001U 17069A   26177.26129809 -.00000086  00000+0  00000+0 0  9994
2 43001  56.7000  62.7851 0009932 326.5159  33.4640  1.86231403 58776
BEIDOU-3 M2             
1 43002U 17069B   26177.20007009 -.00000086  00000+0  00000+0 0  9996
2 43002  56.6993  62.8231 0008922 352.8542   7.1754  1.86230727 58767
GSAT0215 (GALILEO 19)   
1 43055U 17079A   26177.40088376  .00000063  00000+0  00000+0 0  9997
2 43055  55.0715 221.2530 0003507 265.2827  94.7697  1.70474651 53144
